[Satellite]
VERSION=1.1
NAME=GOES 15
NICKNAME=GOES 15
TLE1=1 36411U 10008A   17185.59072172  .00000084  00000-0  00000-0 0  9991
TLE2=2 36411   0.2348 101.8740 0002445  59.4597 198.6668  1.00274943 26900
